{"type":"FeatureCollection","features":[{"type":"Feature","properties":{"uf":"PA","nome":"Pará"},"geometry":{"type":"MultiPolygon","coordinates":[[[[-48.1946,-4.911],[-48.0584,-4.8042],[-48.0254,-4.7783],[-47.8162,-4.6147],[-47.7926,-4.5864],[-47.7248,-4.6064],[-47.68,-4.6086],[-47.6152,-4.56],[-47.5836,-4.523],[-47.5619,-4.4724],[-47.5373,-4.4516],[-47.4763,-4.3564],[-47.4795,-4.3285],[-47.442,-4.2874],[-47.3725,-4.245],[-47.3763,-4.2235],[-47.3569,-4.1768],[-47.3472,-4.1087],[-47.3187,-4.0476],[-47.2931,-4.0523],[-47.2405,-4.0004],[-47.1952,-3.9856],[-47.1687,-3.9406],[-47.1731,-3.9238],[-47.1352,-3.902],[-47.1275,-3.8766],[-47.0852,-3.8566],[-47.0534,-3.7466],[-47.0392,-3.6728],[-47.0509,-3.6534],[-47.0306,-3.6046],[-47.0383,-3.5643],[-46.9698,-3.5125],[-46.9824,-3.4962],[-46.9421,-3.4487],[-46.9563,-3.4259],[-46.9272,-3.3761],[-46.8836,-3.3374],[-46.8586,-3.343],[-46.8149,-3.3115],[-46.8021,-3.266],[-46.779,-3.2411],[-46.7695,-3.1986],[-46.7226,-3.1591],[-46.7496,-3.1245],[-46.6886,-3.093],[-46.6732,-3.0673],[-46.6685,-2.9928],[-46.6474,-2.9698],[-46.6734,-2.8931],[-46.6394,-2.8836],[-46.6413,-2.8543],[-46.5896,-2.8458],[-46.5992,-2.7959],[-46.6696,-2.7346],[-46.6714,-2.7062],[-46.6186,-2.6654],[-46.6223,-2.6449],[-46.5673,-2.6268],[-46.5068,-2.6169],[-46.5094,-2.5906],[-46.4736,-2.5466],[-46.4299,-2.5368],[-46.4358,-2.4709],[-46.4394,-2.4132],[-46.4128,-2.3791],[-46.4319,-2.3645],[-46.4331,-2.3007],[-46.3911,-2.2501],[-46.3472,-2.222],[-46.3273,-2.1862],[-46.2833,-2.1544],[-46.2731,-2.1201],[-46.2746,-2.0546],[-46.2632,-2.0493],[-46.2234,-1.9149],[-46.2435,-1.8786],[-46.211,-1.8311],[-46.2303,-1.8031],[-46.2589,-1.795],[-46.31,-1.8063],[-46.3245,-1.7727],[-46.3152,-1.7416],[-46.295,-1.7266],[-46.2476,-1.7209],[-46.2212,-1.7313],[-46.2035,-1.7053],[-46.1741,-1.7005],[-46.1553,-1.6754],[-46.1613,-1.6228],[-46.1336,-1.5818],[-46.1441,-1.5178],[-46.1761,-1.4774],[-46.1436,-1.4497],[-46.1535,-1.4256],[-46.1146,-1.3519],[-46.1333,-1.3097],[-46.1616,-1.2819],[-46.1401,-1.2477],[-46.133,-1.2104],[-46.1041,-1.202],[-46.0871,-1.1344],[-46.0634,-1.1062],[-46.0946,-1.0206],[-46.1413,-1.0582],[-46.1605,-1.0052],[-46.1786,-1.0028],[-46.1841,-1.0531],[-46.2154,-1.0263],[-46.2128,-0.9793],[-46.1757,-0.9428],[-46.2007,-0.8869],[-46.2648,-0.9134],[-46.2667,-0.9613],[-46.2877,-0.9994],[-46.3374,-1.0215],[-46.4691,-1.0253],[-46.4648,-0.9981],[-46.4804,-0.9238],[-46.4103,-0.8876],[-46.4238,-0.8665],[-46.4958,-0.8722],[-46.5568,-0.9186],[-46.5763,-0.9806],[-46.6013,-0.9573],[-46.6364,-0.9691],[-46.625,-0.9212],[-46.6348,-0.8961],[-46.5961,-0.8419],[-46.6134,-0.8158],[-46.6653,-0.7912],[-46.6766,-0.8206],[-46.716,-0.8438],[-46.7662,-0.8396],[-46.796,-0.8705],[-46.8339,-0.8259],[-46.8243,-0.7912],[-46.836,-0.7467],[-46.8624,-0.7417],[-46.8837,-0.7672],[-46.8837,-0.8076],[-46.9128,-0.8211],[-46.9161,-0.8524],[-46.9426,-0.8593],[-46.9422,-0.8075],[-46.9703,-0.7675],[-46.9462,-0.731],[-46.975,-0.7041],[-47.0085,-0.7689],[-47.0279,-0.7637],[-47.0637,-0.7946],[-47.0858,-0.7509],[-47.0743,-0.7048],[-47.092,-0.6741],[-47.1212,-0.6762],[-47.1327,-0.7224],[-47.1605,-0.7623],[-47.1709,-0.6763],[-47.2092,-0.6961],[-47.2048,-0.65],[-47.2182,-0.6327],[-47.262,-0.6243],[-47.2619,-0.6478],[-47.2809,-0.6382],[-47.2864,-0.603],[-47.3164,-0.5922],[-47.3863,-0.6047],[-47.3953,-0.6538],[-47.426,-0.6573],[-47.4115,-0.6039],[-47.4213,-0.5848],[-47.4744,-0.5923],[-47.479,-0.6572],[-47.47,-0.6938],[-47.5015,-0.7094],[-47.5315,-0.6164],[-47.5643,-0.5816],[-47.5887,-0.5757],[-47.5866,-0.6383],[-47.6081,-0.6978],[-47.6315,-0.7063],[-47.6327,-0.6021],[-47.7039,-0.5346],[-47.7543,-0.5432],[-47.7712,-0.5643],[-47.7562,-0.6063],[-47.7776,-0.5818],[-47.8095,-0.5843],[-47.8306,-0.6096],[-47.8209,-0.6375],[-47.8514,-0.6692],[-47.8493,-0.5883],[-47.8699,-0.5612],[-47.9094,-0.5774],[-47.9173,-0.6232],[-47.9646,-0.6421],[-47.977,-0.6862],[-48.0197,-0.6866],[-48.0514,-0.6595],[-48.1416,-0.7542],[-48.1716,-0.8164],[-48.2295,-0.8278],[-48.2685,-0.9029],[-48.2938,-0.9197],[-48.3658,-0.9189],[-48.4096,-0.9058],[-48.4747,-0.8739],[-48.5061,-0.8104],[-48.5061,-0.7509],[-48.488,-0.734],[-48.4706,-0.6141],[-48.4737,-0.5267],[-48.4411,-0.4122],[-48.3883,-0.3527],[-48.3746,-0.3031],[-48.3969,-0.2516],[-48.4288,-0.2272],[-48.5037,-0.2425],[-48.6385,-0.2323],[-48.712,-0.2518],[-48.7437,-0.2499],[-48.8101,-0.2148],[-48.9179,-0.2296],[-48.9396,-0.2258],[-48.9973,-0.1862],[-49.0169,-0.1602],[-49.1367,-0.1682],[-49.1962,-0.1314],[-49.2559,-0.1598],[-49.3286,-0.1578],[-49.3787,-0.191],[-49.4222,-0.1684],[-49.4386,-0.1265],[-49.4317,-0.0882],[-49.3589,-0.0259],[-49.3695,0.0378],[-49.397,0.0622],[-49.479,0.0811],[-49.5826,0.0897],[-49.6322,0.0749],[-49.6657,0.0966],[-49.6996,0.1505],[-49.6927,0.1781],[-49.6444,0.2167],[-49.6333,0.2414],[-49.5837,0.2725],[-49.534,0.2892],[-49.4886,0.3342],[-49.5032,0.3717],[-49.5478,0.3901],[-49.5819,0.4187],[-49.6181,0.3921],[-49.6615,0.393],[-49.7248,0.3776],[-49.7778,0.3413],[-49.8078,0.3321],[-49.8283,0.3554],[-49.8892,0.3225],[-49.9219,0.3576],[-49.9805,0.3605],[-49.9929,0.3384],[-50.0514,0.3367],[-50.0984,0.3445],[-50.1317,0.3307],[-50.1678,0.3403],[-50.1727,0.3976],[-50.0774,0.4634],[-50.0364,0.5342],[-50.0279,0.5678],[-50.0373,0.6019],[-50.0726,0.6358],[-50.1044,0.6396],[-50.1335,0.6196],[-50.2135,0.656],[-50.2261,0.6962],[-50.3286,0.6743],[-50.4099,0.6233],[-50.4365,0.6001],[-50.4673,0.5309],[-50.4762,0.4815],[-50.504,0.4351],[-50.5239,0.3724],[-50.553,0.3125],[-50.5997,0.2494],[-50.6448,0.2087],[-50.6682,0.185],[-50.7435,0.1305],[-50.7848,0.1121],[-50.9211,0.0761],[-50.9748,0.0418],[-51.0689,-0.0791],[-51.1184,-0.0975],[-51.2081,-0.117],[-51.235,-0.1436],[-51.3025,-0.2526],[-51.3478,-0.2996],[-51.3625,-0.3681],[-51.4237,-0.4366],[-51.4325,-0.4733],[-51.4578,-0.5132],[-51.5151,-0.566],[-51.5955,-0.6504],[-51.6835,-0.7955],[-51.6956,-0.9247],[-51.6856,-1.0129],[-51.7004,-1.0632],[-51.7784,-1.1404],[-51.8091,-1.1571],[-51.882,-1.1663],[-51.9229,-1.133],[-51.9494,-1.1688],[-51.987,-1.1645],[-52.0551,-1.1769],[-52.0476,-1.2143],[-52.0705,-1.236],[-52.111,-1.215],[-52.1068,-1.1831],[-52.1203,-1.1462],[-52.1467,-1.1488],[-52.1789,-1.1296],[-52.2147,-1.135],[-52.333,-1.1159],[-52.3582,-1.0626],[-52.4168,-1.0256],[-52.4187,-0.9722],[-52.4387,-0.9436],[-52.4047,-0.9127],[-52.4124,-0.8627],[-52.4555,-0.8303],[-52.5111,-0.8567],[-52.5418,-0.8365],[-52.517,-0.809],[-52.5182,-0.7755],[-52.4974,-0.7113],[-52.5104,-0.6792],[-52.5132,-0.6196],[-52.5352,-0.5741],[-52.5763,-0.5764],[-52.613,-0.5949],[-52.64,-0.5849],[-52.6954,-0.4964],[-52.7027,-0.4592],[-52.6792,-0.4237],[-52.6973,-0.3929],[-52.6818,-0.34],[-52.6842,-0.3143],[-52.7544,-0.2622],[-52.7604,-0.2376],[-52.8361,-0.1861],[-52.8515,-0.1502],[-52.904,-0.1549],[-52.9327,-0.1423],[-52.969,-0.0498],[-52.9834,0.0334],[-53.015,0.0597],[-53.0521,0.1573],[-53.0943,0.1953],[-53.1059,0.2373],[-53.0941,0.259],[-53.1314,0.2962],[-53.1365,0.326],[-53.1753,0.3817],[-53.1612,0.3985],[-53.1698,0.4937],[-53.1521,0.5319],[-53.1473,0.6003],[-53.1227,0.6301],[-53.1057,0.6795],[-53.1469,0.6998],[-53.1574,0.7291],[-53.1903,0.7684],[-53.2551,0.8092],[-53.2875,0.8457],[-53.4115,0.9293],[-53.4108,0.982],[-53.4268,0.9924],[-53.4223,1.0337],[-53.4558,1.0774],[-53.4592,1.1337],[-53.4444,1.1513],[-53.4021,1.154],[-53.3961,1.1793],[-53.4261,1.2259],[-53.4737,1.2393],[-53.5252,1.2117],[-53.5463,1.2285],[-53.5233,1.2613],[-53.5527,1.2803],[-53.5626,1.3066],[-53.5385,1.3409],[-53.5952,1.3582],[-53.6332,1.3474],[-53.6649,1.3752],[-53.7015,1.3779],[-53.7837,1.4029],[-53.8236,1.3896],[-53.8878,1.4078],[-53.8773,1.4317],[-53.896,1.4551],[-53.9671,1.4844],[-54.0018,1.4836],[-54.0203,1.5158],[-54.0692,1.501],[-54.0988,1.5505],[-54.1019,1.5843],[-54.1437,1.6406],[-54.2009,1.6456],[-54.2627,1.6884],[-54.2696,1.7048],[-54.3517,1.7541],[-54.4572,1.7583],[-54.4959,1.7469],[-54.5305,1.7671],[-54.6019,1.7846],[-54.6436,1.7686],[-54.7448,1.7758],[-54.7544,1.7978],[-54.7385,1.8248],[-54.7702,1.9257],[-54.756,1.9742],[-54.8038,2.0258],[-54.8063,2.1389],[-54.7679,2.1809],[-54.7631,2.2023],[-54.8114,2.2664],[-54.7962,2.318],[-54.8076,2.3417],[-54.8747,2.4153],[-54.8723,2.4337],[-54.9354,2.5186],[-54.9543,2.5837],[-55.0038,2.591],[-55.1031,2.5257],[-55.1235,2.5677],[-55.1729,2.5594],[-55.2348,2.5035],[-55.3203,2.5155],[-55.3562,2.4757],[-55.3456,2.4481],[-55.3854,2.4185],[-55.4294,2.439],[-55.4998,2.4433],[-55.5707,2.4236],[-55.5779,2.4355],[-55.6423,2.4161],[-55.6984,2.4216],[-55.7077,2.4032],[-55.718,2.4021],[-55.747,2.4105],[-55.7667,2.4553],[-55.8389,2.4623],[-55.8809,2.489],[-55.9017,2.5173],[-55.9347,2.5335],[-55.9783,2.5274],[-55.9912,2.4671],[-55.9899,2.4173],[-56.0367,2.3743],[-56.0226,2.3475],[-56.0507,2.3351],[-56.0902,2.3724],[-56.0938,2.3213],[-56.1281,2.2865],[-56.1325,2.2637],[-56.043,2.2279],[-56.0563,2.1894],[-56.0351,2.1689],[-56.0031,2.1677],[-55.9698,2.1131],[-55.9268,2.0752],[-55.9021,2.0294],[-55.9138,1.9906],[-55.9352,1.9966],[-55.9206,1.9191],[-55.9039,1.8881],[-55.9543,1.8486],[-55.999,1.8314],[-56.0367,1.8503],[-56.0987,1.8466],[-56.13,1.8593],[-56.1527,1.8908],[-56.2345,1.8987],[-56.2415,1.8797],[-56.335,1.9372],[-56.4119,1.9283],[-56.4371,1.9518],[-56.4829,1.9542],[-56.4957,1.9381],[-56.5798,1.906],[-56.6215,1.946],[-56.6735,1.9128],[-56.7164,1.9261],[-56.765,1.8884],[-56.8015,1.8742],[-56.8936,1.8994],[-56.9198,1.9304],[-57.0008,1.9074],[-57.0347,1.9486],[-57.064,1.956],[-57.0868,2.0265],[-57.1584,1.9919],[-57.1792,1.9902],[-57.2292,1.9536],[-57.253,1.9485],[-57.2773,1.9831],[-57.3457,1.9803],[-57.365,1.9261],[-57.4335,1.906],[-57.432,1.8586],[-57.451,1.8064],[-57.497,1.7735],[-57.5343,1.7083],[-57.6294,1.6985],[-57.6505,1.6824],[-57.7197,1.7229],[-57.7924,1.7267],[-57.8196,1.6839],[-57.8951,1.6744],[-57.9269,1.6449],[-57.9811,1.6594],[-57.9787,1.5728],[-58.0056,1.5168],[-58.0273,1.5087],[-58.061,1.5254],[-58.1295,1.499],[-58.1497,1.5101],[-58.1607,1.5602],[-58.1895,1.5716],[-58.2333,1.5475],[-58.2624,1.5708],[-58.3172,1.5685],[-58.3325,1.5907],[-58.3896,1.5354],[-58.3857,1.47],[-58.4129,1.4727],[-58.4485,1.4561],[-58.5052,1.4649],[-58.5052,1.4032],[-58.4716,1.3742],[-58.4711,1.3194],[-58.4952,1.295],[-58.4963,1.268],[-58.5383,1.2677],[-58.5597,1.2902],[-58.5886,1.2699],[-58.6288,1.2886],[-58.6613,1.2805],[-58.7105,1.2899],[-58.7163,1.241],[-58.7513,1.2085],[-58.8213,1.171],[-58.8544,1.1835],[-58.8711,1.2177],[-58.8955,1.2277],[-58.8955,0.9047],[-58.8956,0.5922],[-58.8955,0.2635],[-58.895,-0.011],[-58.8866,-0.0592],[-58.8639,-0.078],[-58.8653,-0.1689],[-58.881,-0.1966],[-58.8654,-0.2655],[-58.876,-0.3114],[-58.8695,-0.3475],[-58.8362,-0.3727],[-58.7835,-0.389],[-58.7253,-0.4383],[-58.7365,-0.4717],[-58.7112,-0.5185],[-58.709,-0.5459],[-58.7313,-0.5807],[-58.7363,-0.6194],[-58.7127,-0.6446],[-58.7065,-0.6796],[-58.6367,-0.7201],[-58.609,-0.7616],[-58.536,-0.8222],[-58.4985,-0.8357],[-58.4743,-0.8692],[-58.4342,-0.8922],[-58.452,-0.9241],[-58.4106,-0.9822],[-58.4284,-1.0246],[-58.3637,-1.0711],[-58.3484,-1.1129],[-58.3167,-1.1477],[-58.2576,-1.1308],[-58.163,-1.2301],[-58.0928,-1.1616],[-58.0587,-1.1065],[-58.0173,-1.1036],[-58.0013,-1.1481],[-57.9688,-1.1626],[-57.9707,-1.2278],[-57.9987,-1.3313],[-57.9565,-1.3783],[-57.9597,-1.3969],[-57.9115,-1.4047],[-57.8247,-1.4378],[-57.7953,-1.4872],[-57.758,-1.5022],[-57.7177,-1.5033],[-57.6888,-1.587],[-57.6219,-1.5892],[-57.5441,-1.6111],[-57.4731,-1.6789],[-57.4435,-1.6646],[-57.3858,-1.6977],[-57.3534,-1.7368],[-57.3277,-1.7162],[-57.2923,-1.7083],[-57.2308,-1.7275],[-57.2022,-1.7131],[-57.1711,-1.7509],[-57.125,-1.7681],[-57.1103,-1.7923],[-57.0793,-1.8026],[-57.0676,-1.8545],[-57.0284,-1.918],[-56.9884,-1.9072],[-56.9611,-1.953],[-56.9237,-1.9643],[-56.8763,-1.9923],[-56.859,-2.0159],[-56.7932,-2.021],[-56.7479,-2.0115],[-56.7214,-2.0592],[-56.7328,-2.0917],[-56.7694,-2.1407],[-56.761,-2.1741],[-56.7078,-2.1839],[-56.6791,-2.2126],[-56.6129,-2.2102],[-56.5856,-2.1765],[-56.5271,-2.1392],[-56.4779,-2.1704],[-56.4442,-2.1539],[-56.4139,-2.1759],[-56.3678,-2.1371],[-56.3168,-2.1401],[-56.2975,-2.1008],[-56.2562,-2.0883],[-56.2284,-2.0562],[-56.1867,-2.0428],[-56.0987,-2.0269],[-56.0976,-2.0371],[-56.1694,-2.1455],[-56.2038,-2.1831],[-56.3072,-2.2425],[-56.3642,-2.2593],[-56.3892,-2.2785],[-56.4128,-2.3217],[-56.4257,-2.3692],[-56.4645,-2.4316],[-56.4021,-2.4565],[-56.4263,-2.5016],[-56.6098,-2.8963],[-56.7679,-3.2429],[-56.8101,-3.333],[-56.9138,-3.5623],[-56.9561,-3.6586],[-57.0005,-3.7591],[-57.2136,-4.2116],[-57.3502,-4.5018],[-57.5856,-5.0007],[-57.7718,-5.4071],[-57.8606,-5.6007],[-58.0336,-5.9781],[-58.2667,-6.4756],[-58.3271,-6.5004],[-58.3499,-6.5624],[-58.4273,-6.6162],[-58.4785,-6.6996],[-58.4818,-6.7814],[-58.4346,-6.9088],[-58.3802,-6.9705],[-58.3354,-6.9864],[-58.2883,-7.0617],[-58.2399,-7.0955],[-58.181,-7.1817],[-58.1678,-7.2392],[-58.17,-7.3132],[-58.1474,-7.3432],[-58.1371,-7.3561],[-58.1214,-7.3518],[-58.0614,-7.3952],[-58.0398,-7.4463],[-58.0022,-7.4881],[-57.9521,-7.5801],[-57.9344,-7.6568],[-57.8967,-7.6779],[-57.8796,-7.7819],[-57.835,-7.8814],[-57.8319,-7.9615],[-57.7765,-8.0522],[-57.7325,-8.0892],[-57.7187,-8.1512],[-57.6729,-8.1726],[-57.6417,-8.2199],[-57.6802,-8.3269],[-57.6678,-8.3639],[-57.6866,-8.407],[-57.6831,-8.4301],[-57.6518,-8.4788],[-57.6591,-8.5004],[-57.6334,-8.5268],[-57.6505,-8.5534],[-57.6222,-8.5912],[-57.6226,-8.645],[-57.6053,-8.6628],[-57.5936,-8.7074],[-57.5929,-8.7565],[-57.5624,-8.7613],[-57.523,-8.7497],[-57.4635,-8.7847],[-57.4175,-8.7926],[-57.4162,-8.859],[-57.3844,-8.8796],[-57.3179,-8.8857],[-57.2895,-8.9158],[-57.2355,-8.9074],[-57.2038,-8.9208],[-57.1383,-8.9946],[-57.0946,-9.0171],[-57.0392,-9.0983],[-57.0604,-9.1371],[-57.0598,-9.1824],[-56.9955,-9.2338],[-56.9417,-9.2293],[-56.8201,-9.2463],[-56.7755,-9.3295],[-56.7723,-9.391],[-56.7543,-9.4064],[-56.7084,-9.3732],[-56.6719,-9.3674],[-56.2723,-9.4008],[-56.1565,-9.4104],[-55.8672,-9.4343],[-55.3779,-9.4743],[-54.9956,-9.5053],[-54.6135,-9.5358],[-54.1068,-9.5719],[-53.5891,-9.611],[-53.1334,-9.6452],[-52.6193,-9.6823],[-52.2567,-9.7077],[-51.7243,-9.7446],[-51.3043,-9.7729],[-50.846,-9.8006],[-50.5006,-9.824],[-50.2248,-9.8412],[-50.1991,-9.7617],[-50.15,-9.6928],[-50.1378,-9.6248],[-50.1074,-9.5943],[-50.0896,-9.5457],[-50.1053,-9.4754],[-50.0901,-9.4316],[-50.0528,-9.3727],[-50.0555,-9.3347],[-50.0378,-9.2894],[-50.0027,-9.2653],[-49.9969,-9.2377],[-49.9669,-9.2311],[-49.9054,-9.1697],[-49.8626,-9.0815],[-49.8514,-9.0637],[-49.8426,-9.0273],[-49.7937,-8.9794],[-49.7677,-8.9337],[-49.6844,-8.8565],[-49.5924,-8.8395],[-49.5434,-8.7614],[-49.4818,-8.6737],[-49.4515,-8.6125],[-49.4099,-8.58],[-49.3996,-8.5451],[-49.3915,-8.4898],[-49.3494,-8.4184],[-49.2833,-8.3796],[-49.2487,-8.2554],[-49.221,-8.2038],[-49.1932,-8.0765],[-49.1767,-8.0615],[-49.1756,-8.0094],[-49.182,-7.977],[-49.1632,-7.9213],[-49.1673,-7.8564],[-49.1501,-7.8121],[-49.1607,-7.7914],[-49.2212,-7.7616],[-49.3423,-7.6558],[-49.361,-7.6149],[-49.3816,-7.5691],[-49.378,-7.4964],[-49.264,-7.3642],[-49.2339,-7.3289],[-49.1853,-7.2352],[-49.1864,-7.1967],[-49.1938,-7.1298],[-49.1935,-7.0407],[-49.2174,-6.9615],[-49.2095,-6.9254],[-49.1719,-6.8929],[-49.1153,-6.8699],[-49.0834,-6.8433],[-49.0376,-6.8093],[-49.0189,-6.7842],[-48.9637,-6.7795],[-48.9139,-6.7574],[-48.8532,-6.7491],[-48.8259,-6.7547],[-48.7691,-6.7307],[-48.7291,-6.6893],[-48.6663,-6.6642],[-48.652,-6.64],[-48.6645,-6.5677],[-48.6337,-6.4914],[-48.6261,-6.4785],[-48.6072,-6.448],[-48.5406,-6.4008],[-48.5002,-6.3509],[-48.4477,-6.3512],[-48.3827,-6.3796],[-48.3757,-6.345],[-48.4171,-6.2986],[-48.4127,-6.2813],[-48.4361,-6.2014],[-48.4319,-6.1773],[-48.3913,-6.1467],[-48.3245,-6.1327],[-48.288,-6.0976],[-48.2985,-6.0501],[-48.3297,-6.0398],[-48.3347,-6.0043],[-48.2968,-5.9699],[-48.2329,-5.9476],[-48.2301,-5.9225],[-48.292,-5.8368],[-48.2998,-5.796],[-48.2902,-5.7435],[-48.2757,-5.7265],[-48.2306,-5.7293],[-48.1723,-5.7086],[-48.1412,-5.6544],[-48.1382,-5.6027],[-48.1947,-5.5631],[-48.2787,-5.5404],[-48.3281,-5.4966],[-48.3472,-5.4354],[-48.3935,-5.3942],[-48.4415,-5.408],[-48.5139,-5.4298],[-48.5575,-5.4167],[-48.5967,-5.4225],[-48.6291,-5.4101],[-48.6505,-5.3849],[-48.7369,-5.374],[-48.7552,-5.3492],[-48.4519,-5.1122],[-48.2124,-4.9249],[-48.1946,-4.911]]],[[[-49.6263,0.1901],[-49.6607,0.1873],[-49.6775,0.1557],[-49.6535,0.145],[-49.6154,0.1528],[-49.6263,0.1901]]],[[[-49.4503,0.1172],[-49.4769,0.1482],[-49.5024,0.1174],[-49.4503,0.1172]]],[[[-49.6181,0.1992],[-49.5763,0.2197],[-49.6021,0.2428],[-49.6181,0.1992]]],[[[-48.8759,-0.182],[-48.887,-0.1532],[-48.93,-0.1605],[-48.9475,-0.2056],[-48.9246,-0.214],[-48.8813,-0.2033],[-48.8759,-0.182]]],[[[-46.3114,-1.006],[-46.3066,-0.9433],[-46.34,-0.9598],[-46.3114,-1.006]]]]}}]}